ORBCOMM FM103 [+]       
1 40091U 14040F   24044.30398544  .00001932  00000+0  46958-3 0  9992
2 40091  47.0049 167.8917 0002413 208.9124 151.1627 14.56294389492655
ORBCOMM FM114 [+]       
1 41179U 15081A   24044.06387030  .00001628  00000+0  40159-3 0  9996
2 41179  47.0031  78.3357 0002690 268.3491  91.7086 14.56298352432984
ORBCOMM FM119 [-]       
1 41180U 15081B   24044.51290099  .00001927  00000+0  46853-3 0  9995
2 41180  47.0027 345.4119 0002028 315.3583  44.7138 14.56288684434306
ORBCOMM FM105 [-]       
1 41181U 15081C   24044.44950576  .00000804  00000+0  27753-3 0  9992
2 41181  47.0023 304.7111 0002383 286.8553  73.2066 14.44229918429938
ORBCOMM FM110 [+]       
1 41182U 15081D   24044.45258011  .00002255  00000+0  54156-3 0  9998
2 41182  47.0007  75.9197 0000658  58.0241 302.0708 14.56301690432917
ORBCOMM FM118 [+]       
1 41183U 15081E   24044.49847065  .00002159  00000+0  52003-3 0  9998
2 41183  47.0041  75.9918 0000836  61.8749 298.2220 14.56302089433021
ORBCOMM FM112 [+]       
1 41184U 15081F   24044.83397044  .00002880  00000+0  68113-3 0  9994
2 41184  46.9999 343.1379 0001937 304.2796  55.7906 14.56305119434342
ORBCOMM FM113 [+]       
1 41185U 15081G   24044.53649462  .00002281  00000+0  54759-3 0  9992
2 41185  47.0027 344.7887 0001546 318.7223  41.3545 14.56284308434233
